[ {"name": "STARLINK-35323", "line1": "1 66071U 25235P   26114.20297836  .00010752  00000+0  37456-3 0  9990", "line2": "2 66071  53.1614  33.5844 0001819  68.6458 291.4737 15.30206130 29897"}, {"name": "STARLINK-35299", "line1": "1 66072U 25235Q   26114.17564941  .00015560  00000+0  53617-3 0  9990", "line2": "2 66072  53.1630  34.1273 0000757 114.2389 245.8691 15.30211341 29881"}, {"name": "STARLINK-35274", "line1": "1 66073U 25235R   26114.19253610  .00014462  00000+0  49930-3 0  9994", "line2": "2 66073  53.1596  34.2348 0001155 100.4154 259.6977 15.30210208 29888"}, {"name": "STARLINK-35321", "line1": "1 66074U 25235S   26114.18620421  .00015684  00000+0  54044-3 0  9991", "line2": "2 66074  53.1594  34.1929 0001126  90.4420 269.6709 15.30206848 29882"}, {"name": "STARLINK-35131", "line1": "1 66075U 25235T   26114.16721147  .00007238  00000+0  25629-3 0  9990", "line2": "2 66075  53.1639  34.0702 0001283  81.0094 279.1052 15.30194529 29887"}, {"name": "STARLINK-34801", "line1": "1 66076U 25235U   26114.17987507  .00019987  00000+0  68471-3 0  9992", "line2": "2 66076  53.1606  34.1588 0001269  59.4265 300.6860 15.30220483 29884"}, {"name": "STARLINK-35129", "line1": "1 66077U 25235V   26114.17353683  .00028353  00000+0  96520-3 0  9998", "line2": "2 66077  53.1630  34.1130 0000548 196.3808 163.7176 15.30218797 29881"}, {"name": "STARLINK-35116", "line1": "1 66078U 25235W   26114.15349118  .00014387  00000+0  49677-3 0  9998", "line2": "2 66078  53.1617  33.9833 0001326  94.1443 265.9709 15.30210328 29888"}, {"name": "STARLINK-35402", "line1": "1 66079U 25235X   26114.01652900  .00012393  00000+0  42973-3 0  9997", "line2": "2 66079  53.1597  34.5500 0001300  98.1070 262.0079 15.30207736 29861"}, {"name": "STARLINK-35325", "line1": "1 66080U 25235Y   26114.15982522  .00017934  00000+0  61585-3 0  9996", "line2": "2 66080  53.1613  34.0255 0001182  68.4948 291.6179 15.30216748 29880"}, {"name": "STARLINK-35403", "line1": "1 66081U 25235Z   26114.19980958  .00015052  00000+0  51906-3 0  9997", "line2": "2 66081  53.1582  33.5639 0000749  78.4882 281.6203 15.30213997 29893"}, {"name": "STARLINK-35011", "line1": "1 66082U 25235AA  26114.14082744  .00015950  00000+0  54940-3 0  9997", "line2": "2 66082  53.1574  33.9064 0001001  95.3469 264.7646 15.30204908 29886"}, {"name": "STARLINK-35291", "line1": "1 66083U 25235AB  26113.99870069  .00020798  00000+0  71231-3 0  9993", "line2": "2 66083  53.1570  35.1455 0000911  36.4533 323.6530 15.30202451 29820"}, {"name": "STARLINK-35379", "line1": "1 66084U 25235AC  26114.18198419  .00014603  00000+0  50402-3 0  9993", "line2": "2 66084  53.1603  34.1626 0001216  75.2375 284.8761 15.30210682 29886"}, {"name": "STARLINK-35370", "line1": "1 66085U 25235AD  26114.18830844  .00017363  00000+0  59679-3 0  9990", "line2": "2 66085  53.1600  34.1998 0000882 204.9727 155.1231 15.30211060 29856"}, {"name": "STARLINK-35596", "line1": "1 66086U 25236A   26113.64906798  .00015139  00000+0  52212-3 0  9999", "line2": "2 66086  53.1615 255.3556 0001406 102.4260 257.6898 15.30206196 29825"}, {"name": "STARLINK-35563", "line1": "1 66087U 25236B   26113.68166784  .00022723  00000+0  77657-3 0  9994", "line2": "2 66087  53.1578 254.8483 0001878  85.6326 274.4889 15.30216359 29778"}, {"name": "STARLINK-35461", "line1": "1 66088U 25236C   26113.66583923  .00030850  00000+0  10479-2 0  9999", "line2": "2 66088  53.1582 254.7472 0000931 101.3789 258.7316 15.30246159 29770"}, {"name": "STARLINK-35571", "line1": "1 66089U 25236D   26113.67533667  .00029695  00000+0  10101-2 0  9998", "line2": "2 66089  53.1570 254.8079 0001122  81.5042 278.6086 15.30219020 29835"}, {"name": "STARLINK-35570", "line1": "1 66090U 25236E   26113.65950613  .00023368  00000+0  79828-3 0  9995", "line2": "2 66090  53.1586 254.7070 0001329 103.1205 256.9944 15.30213665 29836"}, {"name": "STARLINK-35532", "line1": "1 66091U 25236F   26113.65317437  .00015228  00000+0  52506-3 0  9997", "line2": "2 66091  53.1627 254.6668 0001538 107.0186 253.0983 15.30209123 29833"}, {"name": "STARLINK-35527", "line1": "1 66092U 25236G   26113.64590256  .00015309  00000+0  52784-3 0  9997", "line2": "2 66092  53.1607 255.3361 0001120  93.5662 266.5467 15.30206146 29822"}, {"name": "STARLINK-35500", "line1": "1 66093U 25236H   26112.82941057  .00011244  00000+0  39115-3 0  9993", "line2": "2 66093  53.1600 258.7725 0001260  78.6658 281.4485 15.30204181 29701"}, {"name": "STARLINK-35528", "line1": "1 66094U 25236J   26113.67217056  .00011118  00000+0  38695-3 0  9995", "line2": "2 66094  53.1594 254.7867 0001347  86.3890 273.7264 15.30200303 29832"}, {"name": "STARLINK-35559", "line1": "1 66095U 25236K   26112.81991403  .00021051  00000+0  72097-3 0  9997", "line2": "2 66095  53.1567 258.7093 0001444 108.2184 251.8974 15.30195508 29707"}, {"name": "STARLINK-34386", "line1": "1 66096U 25236L   26113.66267406  .00016705  00000+0  57476-3 0  9995", "line2": "2 66096  53.1586 254.7270 0001340  90.0961 270.0193 15.30206421 29835"}, {"name": "STARLINK-35613", "line1": "1 66097U 25236M   26113.67111442  .00016289  00000+0  56071-3 0  9992", "line2": "2 66097  53.1563 254.7803 0001288  84.3147 275.8001 15.30209353 29834"}, {"name": "STARLINK-34206", "line1": "1 66098U 25236N   26113.64484516  .00027799  00000+0  94663-3 0  9992", "line2": "2 66098  53.1612 255.3275 0001152  84.4478 275.6654 15.30219327 29810"}, {"name": "STARLINK-34460", "line1": "1 66099U 25236P   26113.65633988  .00015841  00000+0  54601-3 0  9996", "line2": "2 66099  53.1617 254.6868 0001069 102.6008 257.5112 15.30187697 29839"}, {"name": "STARLINK-35609", "line1": "1 66100U 25236Q   26113.64167731  .00014829  00000+0  51149-3 0  9995", "line2": "2 66100  53.1603 255.3056 0000923 103.3666 256.7438 15.30218357 29762"}, {"name": "STARLINK-35595", "line1": "1 66101U 25236R   26113.63851537  .00025078  00000+0  85572-3 0  9994", "line2": "2 66101  53.1605 255.2867 0001181  88.1957 271.9179 15.30209922 29763"}, {"name": "STARLINK-35599", "line1": "1 66102U 25236S   26113.11283159  .00023769  00000+0  81209-3 0  9995", "line2": "2 66102  53.1597 257.6941 0000851  90.3940 269.7158 15.30199778 29683"}, {"name": "STARLINK-35622", "line1": "1 66103U 25236T   26113.69432550  .00008617  00000+0  30276-3 0  9993", "line2": "2 66103  53.1597 254.9240 0000772  14.7978 345.3045 15.30196258 29832"}, {"name": "STARLINK-35452", "line1": "1 66104U 25236U   26112.71777422  .00022929  00000+0  78381-3 0  9997", "line2": "2 66104  53.1606 259.4946 0000278 144.2733 215.8286 15.30202263 29681"}, {"name": "STARLINK-35561", "line1": "1 66105U 25236V   26113.69116615  .00018136  00000+0  62282-3 0  9995", "line2": "2 66105  53.1589 254.9052 0001187  84.2595 275.8541 15.30206678 29773"}, {"name": "STARLINK-35584", "line1": "1 66106U 25236W   26113.68800002  .00015629  00000+0  53857-3 0  9997", "line2": "2 66106  53.1584 254.8828 0001438  66.0344 294.0807 15.30207897 29837"}, {"name": "STARLINK-35593", "line1": "1 66107U 25236X   26113.68483238  .00017086  00000+0  58738-3 0  9998", "line2": "2 66107  53.1619 254.8634 0002105  78.5009 281.6228 15.30215425 29835"}, {"name": "STARLINK-35590", "line1": "1 66108U 25236Y   26113.68061281  .00018882  00000+0  64787-3 0  9995", "line2": "2 66108  53.1573 254.8361 0001707  81.1311 278.9883 15.30208025 29772"}, {"name": "STARLINK-35545", "line1": "1 66109U 25236Z   26113.68272376  .00025846  00000+0  88123-3 0  9993", "line2": "2 66109  53.1581 254.8504 0001595  69.6644 290.4528 15.30217551 29832"}, {"name": "STARLINK-35427", "line1": "1 66110U 25236AA  26113.65222995  .00019653  00000+0  67350-3 0  9992", "line2": "2 66110  53.1616 255.3702 0001259 105.6981 254.4159 15.30220430 29820"}, {"name": "STARLINK-35574", "line1": "1 66111U 25236AB  26113.65012565  .00025291  00000+0  86295-3 0  9997", "line2": "2 66111  53.1615 255.3573 0001327  94.0861 266.0292 15.30206673 29763"}, {"name": "STARLINK-35531", "line1": "1 66112U 25236AC  26113.67744605  .00028022  00000+0  95407-3 0  9997", "line2": "2 66112  53.1555 254.8159 0001521  85.3909 274.7265 15.30219605 29836"}, {"name": "STARLINK-35491", "line1": "1 66113U 25236AD  26113.64801116  .00014433  00000+0  49838-3 0  9994", "line2": "2 66113  53.1620 255.3437 0001472 101.9973 258.1193 15.30207261 29826"}, {"name": "STARLINK-35496", "line1": "1 66114U 25237A   26113.51451477  .00017915  00000+0  61522-3 0  9995", "line2": "2 66114  53.1574 191.4005 0001258  79.1368 280.9774 15.30216306 29471"}, {"name": "STARLINK-35428", "line1": "1 66115U 25237B   26114.18349338  .00026045  00000+0  88770-3 0  9990", "line2": "2 66115  53.1577 188.4687 0001091  89.9941 270.1185 15.30226068 29561"}, {"name": "STARLINK-35573", "line1": "1 66116U 25237C   26114.21925661  .00020697  00000+0  70845-3 0  9995", "line2": "2 66116  53.1574 187.9771 0001062  70.9470 289.1645 15.30223980 29585"}, {"name": "STARLINK-35572", "line1": "1 66117U 25237D   26112.93618306  .00010824  00000+0  37707-3 0  9999", "line2": "2 66117  53.1583 194.1927 0001189  88.7154 271.3983 15.30197390 29386"}, {"name": "STARLINK-35468", "line1": "1 66118U 25237E   26113.47138365  .00012299  00000+0  42702-3 0  9991", "line2": "2 66118  53.1588 191.8461 0001261  94.2112 265.9033 15.30173398 29462"}, {"name": "STARLINK-35547", "line1": "1 66119U 25237F   26113.24587034  .00008623  00000+0  30285-3 0  9997", "line2": "2 66119  53.1587 192.5653 0000726  58.3142 301.7930 15.30208255 29435"}, {"name": "STARLINK-35553", "line1": "1 66120U 25237G   26114.17188653  .00021397  00000+0  73214-3 0  9998", "line2": "2 66120  53.1571 188.3950 0000759  30.5532 329.5512 15.30214150 29574"}, {"name": "STARLINK-35631", "line1": "1 66121U 25237H   26114.18771466  .00014630  00000+0  50501-3 0  9996", "line2": "2 66121  53.1584 188.4947 0001716  73.5025 286.6164 15.30204770 29577"}, {"name": "STARLINK-35653", "line1": "1 66122U 25237J   26113.39127524  .00010686  00000+0  37239-3 0  9999", "line2": "2 66122  53.1590 192.0523 0001383  90.9946 269.1213 15.30201479 29452"}]